#dP2022  8  2  6  0  0.00000000      96 __u+U ITR00 EXT  IAC
## 2221 194400.00000000   900.00000000 59793 0.2500000000000
+  116   C06C07C08C09C10C11C12C13C14C16C19C20C21C22C23C24C25
+        C26C27C28C29C30C32C33C34C35C36C37C38C39C40C41C42C43
+        C44C45C46E01E02E03E04E05E07E08E09E10E11E12E13E14E15
+        E18E19E21E24E25E26E27E30E31E33E34E36G01G02G03G04G05
+        G06G07G08G09G10G11G12G13G14G15G16G17G18G19G20G21G22
+        G23G24G25G26G27G28G29G30G31G32J02J03R01R02R03R04R05
+        R07R08R09R11R12R13R14R15R17R18R19R20R21R24  0  0  0
++        10 10  8 10 10  9  9 10  8 10  9  8  8  9  7  8  9
++         8  9  9  8  8  8  9  9  8  8  8  9 11 10  8 10  9
++         8  9  8  7  7  7  8  8  9  8  8  9  7  8  8  8  8
++         7  9  8  8  8  8  8  8  8  8  8  8  7  8  7  9  8
++         7  8  9  8  7  7  7  7  7  7  8  7  7  8  8  8  7
++         8  8  8  8  8  8  8  6  7  8  9 10 10  7  8  8  8
++         7  9  9  8  8  8  8  9  8  7  9  9  8  8  0  0  0
%c M  cc GPS ccc cccc cccc cccc cccc ccccc ccccc ccccc ccccc
%c cc cc ccc ccc cccc cccc cccc cccc ccccc ccccc ccccc ccccc
%f  0.0000000  0.000000000  0.00000000000  0.000000000000000
%f  0.0000000  0.000000000  0.00000000000  0.000000000000000
%i    0    0    0    0      0      0      0      0         0
%i    0    0    0    0      0      0      0      0         0
/* IAC                                ULTRA-RAPID PREDICTION
/* S/V CLOCKS ARE ALIGNED TO GNSS TIME                      
/* G:C1WC2W R:C1PC2P E:C1XC5X C:C2IC6I J:C1CC2S             
/* PCV:IGS14_2215 OL/AL:FES2004  NONE     YN ORB:CoN CLK:CoN
*  2022 08 02 20 15  0.00000000
PC06 -10531.971021  40503.883022  -3909.417648    526.286243
PC07  -3672.446247  28592.615798  30840.830435   -512.814052
PC08 -17896.948155  24779.189717 -29132.359633    427.448906
PC09  -6044.546257  41198.774212   4944.166206   -907.947391
PC10   3704.968050  31130.264586  28681.850288    112.611906
PC11  -1600.245185  27746.065752  -2680.270606   -492.974358
PC12 -11707.123929  21028.233262  14174.581727   -561.318476
PC13 -11569.477884  25868.494066 -31200.818496     41.694461
PC14   6370.607005  19976.840969 -18428.423376    570.999285
PC16 -11855.359303  39729.431287  -6608.178322    143.199304
PC19 -15311.160586 -20325.974547  11447.225410   -344.361011
PC20   1897.286896 -17075.143074  21992.440566   -965.030670
PC21 -19138.662369   3304.160037 -20017.159075   -107.469312
PC22 -24407.646282 -11968.596886  -6241.330971    340.893847
PC23  22247.943540   2969.164390  16594.997484   -955.956408
PC24 -14679.764842  18501.266481  14881.318377   -967.972680
PC25   6852.220228  14765.431485  22663.728677   -698.589414
PC26 -25138.443989  12159.818107   -101.945152    700.721954
PC27  15047.917903 -12898.130582 -19672.276861    763.832150
PC28  14788.724669   7663.268722 -22392.494429     97.207694
PC29  -6506.310937 -24498.093924  11658.904998    590.087235
PC30   6149.141311 -26489.033850  -6314.321426    501.735911
PC32  19198.577766  -3386.911135  19983.401041   -306.673586
PC33  15388.040669  20261.787466 -11485.931017   -315.374928
PC34  -5510.790901  26835.361381   5254.133380   -344.938867
PC35 -14813.533162  -8572.645604  22033.998462    394.414334
PC36  -5924.257555 -15163.412722 -22633.861702   -970.113348
PC37  25693.621490 -10787.033781   1298.983810   -925.737736
PC38 -24233.672123  26202.888886 -22563.303449     14.451557
PC39 -13217.525577  37751.127445 -12988.956999     -0.170268
PC40  -7226.167233  23139.439793  34514.500301     -1.622676
PC41  24431.773475  12204.364770   5795.598504   -132.827787
PC42  -2980.467593  16575.988028 -22215.114635    -46.471661
PC43   6053.299435  24905.585543 -11029.308787      6.443143
PC44 -14728.344278  13193.880414  19665.914750      4.999082
PC45 -22425.592281  -2596.827242 -16407.446315    824.980348
PC46  13130.135045 -18598.376892 -16104.999335   -465.440817
PE01  29046.368119   4864.096860   2974.370346   -527.180691
PE02 -29092.358643  -4736.052649  -2781.947590    315.891912
PE03 -19772.116868  -9273.543708 -19975.542387   -585.428602
PE04  13124.208470 -11635.243443  23850.703943  -1084.958510
PE05 -14932.576411 -25197.447117  -4256.242010   -157.170134
PE07   1503.832347  26217.049758 -13666.372490   -693.080669
PE08 -12855.487279  11787.432248 -23916.004625   -574.450988
PE09  -1609.983894 -26148.913302  13764.139385   -609.300585
PE10  16565.189859 -24517.803148    555.448487   -504.783693
PE11   9627.458349 -25866.194786  10690.673092   2782.599222
PE12  20602.469974 -19282.047442  -8968.069656    -94.633152
PE13 -10144.640309  25927.097827 -10056.995841    430.080144
PE14   4183.205035  28634.219933   4413.660089  -1760.938434
PE15 -20565.308928  19229.163307   9137.041574    729.357151
PE18   6290.034189 -22913.395993 -14295.159861  -1141.071379
PE19  19706.503481  11959.639795  18576.270018  -4918.558283
PE21  18187.888521  14346.238931  18434.000958   -749.538867
PE24   5136.420589 -16188.639804 -24246.943205   -759.204853
PE25 -17928.512828 -14434.886766 -18599.464932   -583.216933
PE26   6962.154970  16751.574450 -23395.866049  -1449.425804
PE27  -3827.146001  16348.569228  24386.693370   -359.234886
PE30 -24044.218719   8126.138294  15238.582433   -722.767542
PE31  23381.267574  -8701.303610 -15917.051373   -500.990523
PE33  18798.393732  -1224.288696 -22836.295607   -454.165869
PE34 -18876.339004   1470.237984  22743.613516   -488.977574
PE36  -6130.591690 -17356.782018  23175.296120   -411.117142
PG01 -12739.863272  21878.868913  -7724.439966    309.422690
PG02  19306.822028 -15648.653412  -8991.445920   -650.090848
PG03  -8146.371458  13327.669409 -21585.813425   -322.812098
PG04  -3624.760657  22078.383170 -14237.713690   -138.166915
PG05  20996.710186  -7098.661120  14565.072541    -91.439436
PG06  16279.615448   2299.711849 -20819.006606    410.069862
PG07   1377.237718  18863.066936  18863.218759    316.630118
PG08  -8665.106948  15644.934160  19477.758526    -78.819605
PG09   6037.831525  25484.580998  -4380.450417   -312.518304
PG10 -21529.815680 -11631.622208  10841.113037   -514.142911
PG11  21286.588123  -8735.516340 -13245.109242    -10.491470
PG12  11282.017631 -11979.930371 -21092.618266   -256.157524
PG13  13893.281444  -6176.730301  21602.968291    360.437498
PG14  19912.132906  13216.526068  11703.769222   -110.582711
PG15   7227.412352 -16784.707833  18744.254458    -40.441558
PG16 -24628.370322    200.202772  10243.227132   -518.650500
PG17  12886.248010  20545.433252 -10328.949024    644.059931
PG18   -726.256859 -18509.324414  18976.547622     94.173274
PG19  15343.754020  12611.009336 -18002.819813    191.981481
PG20  26235.392107  -1293.318063   2978.702635    498.044932
PG21 -17251.447499  19485.306423   3358.770113    160.776355
PG22 -15844.913942  -9852.561644 -18552.760269    303.044607
PG23 -12483.253446 -14759.427118  18255.033058    -35.485356
PG24  13754.400250 -22303.701121  -2907.325072    179.874301
PG25  -3609.273953 -15950.956417 -21260.378885    356.376868
PG26 -26505.730316  -3486.206303    139.995385    221.638615
PG27 -14926.124648   2118.268674  21677.340019    220.571132
PG28  24261.189202   9923.293966   3904.686972    338.955037
PG29  -3790.211894 -25896.287350  -4314.570399   -539.313184
PG30  10854.934647  11531.672768  21404.985171   -535.234145
PG31 -18416.082597   -229.882930 -19435.148321   -188.176710
PG32 -15466.106500 -17716.920728 -12377.548332   -193.032375
PJ02 -30558.099794  22272.550158  23625.135458     -2.547295
PJ03 -29158.350886  27954.044486  17294.953825     -0.405058
PR01  -5882.256374   9600.638415 -22890.019483     12.494026
PR02  10059.848760  19380.000091 -13092.039020    525.834659
PR03  18858.076490  16678.062426   3967.993230     61.212164
PR04  16815.466005   4980.556661  18544.730572    152.651683
PR05   5674.047534  -9560.085826  22968.901067     97.271039
PR07 -18987.327691 -16433.682375  -4585.569449     38.778261
PR08 -16859.555905  -4812.682775 -18483.913858    -66.513672
PR09   -416.563975 -11556.644928 -22718.582859     69.113628
PR11 -24750.648278   4913.570670  -3656.345325     31.565468
PR12 -17526.766751  11700.862954  14414.065522     19.694149
PR13  -1175.616033  11602.566026  22677.607084    -25.289332
PR14  17667.250933   4313.662340  17914.659049     24.660528
PR15  24856.005649  -5057.527822   2757.194999     94.386786
PR17   6813.990383  11778.543683 -21584.236106    548.956296
PR18  11940.657928  -5979.628494 -21734.277651     35.627208
PR19  11741.320681 -19454.059329 -11586.318675   -198.583593
PR20   3684.405008 -23696.122180   8744.829884    -75.805027
PR21  -7394.043062 -10214.266302  22160.719935   -322.409387
PR24  -2510.608831  23632.814202  -9285.541284    106.851375
EOF
